ONEWEB-0082             
1 45452U 20020AE  25317.26072507 -.00000340  00000+0 -99582-3 0  9995
2 45452  87.8878  64.0350 0001707 109.9021 250.2292 13.11416392274379
ONEWEB-0050             
1 45453U 20020AF  25317.27968295  .00009636  00000+0  10141-2 0  9993
2 45453  88.9209 262.6657 0005224  58.1934 301.9802 14.89312509308237
ONEWEB-0034             
1 45454U 20020AG  25317.28194407  .00000468  00000+0  12838-2 0  9990
2 45454  87.8866  64.0477 0001614 102.5873 257.5436 13.11417869274290
ONEWEB-0060             
1 45455U 20020AH  25317.25311287 -.00000441  00000+0 -12793-2 0  9998
2 45455  87.8853  64.0740 0002293 128.4563 231.6771 13.11417872274241
ONEWEB-0086             
1 45456U 20020AJ  25317.23192074  .00000089  00000+0  21546-3 0  9991
2 45456  87.8866  64.0544 0002385 109.1922 250.9465 13.11414136274306
ONEWEB-0088             
1 45457U 20020AK  25317.28617463  .00000552  00000+0  15217-2 0  9993
2 45457  87.8880  63.9959 0001486 104.6541 255.4752 13.11420117274247
ONEWEB-0102             
1 47258U 20100A   25317.23113193 -.00000119  00000+0 -36627-3 0  9999
2 47258  87.8972  33.5886 0001805  96.4691 263.6643 13.12442249236408
ONEWEB-0109             
1 47259U 20100B   25317.23923439 -.00000320  00000+0 -92594-3 0  9991
2 47259  87.8971  33.5544 0001804  98.5492 261.5841 13.12443397236233
ONEWEB-0110             
1 47260U 20100C   25317.18894997  .00000054  00000+0  11356-3 0  9992
2 47260  87.8971  33.5481 0001993 106.0294 254.1054 13.12445314236391
ONEWEB-0111             
1 47261U 20100D   25317.21977513  .00000118  00000+0  29241-3 0  9996
2 47261  87.8973  33.5596 0001771 100.7207 259.4121 13.12440738236231
ONEWEB-0114             
1 47262U 20100E   25317.25058685 -.00000495  00000+0 -14112-2 0  9991
2 47262  87.8977  33.5483 0001773  91.6316 268.5016 13.12443000236196
ONEWEB-0117             
1 47263U 20100F   25317.24248349 -.00000386  00000+0 -11081-2 0  9990
2 47263  87.8972  33.5477 0001748 102.4420 257.6905 13.12442379236200
ONEWEB-0118             
1 47264U 20100G   25317.19869345  .00000395  00000+0  10617-2 0  9992
2 47264  87.8969  33.5553 0001497  92.6095 267.5205 13.12443994236398
ONEWEB-0119             
1 47265U 20100H   25317.22626194  .00000021  00000+0  24417-4 0  9991
2 47265  87.8970  33.5859 0001793 101.6834 258.4496 13.12442604236377
ONEWEB-0120             
1 47266U 20100J   25317.24910470 -.00000285  00000+0 -82740-3 0  9993
2 47266  87.8966  33.5841 0001751  97.5155 262.6173 13.12444806236406
ONEWEB-0121             
1 47267U 20100K   25317.23761731 -.00000301  00000+0 -87144-3 0  9999
2 47267  87.8972  33.5520 0001863 105.0519 255.0816 13.12442414236314
