[{"OBJECT_NAME":"ONEWEB-0082","OBJECT_ID":"2020-020AE","EPOCH":"2025-11-13T06:15:26.646048","MEAN_MOTION":13.11416392,"ECCENTRICITY":0.00017073,"INCLINATION":87.8878,"RA_OF_ASC_NODE":64.035,"ARG_OF_PERICENTER":109.9021,"MEAN_ANOMALY":250.2292,"EPHEMERIS_TYPE":0,"CLASSIFICATION_TYPE":"U","NORAD_CAT_ID":45452,"ELEMENT_SET_NO":999,"REV_AT_EPOCH":27437,"BSTAR":-0.00099582338,"MEAN_MOTION_DOT":-3.4e-6,"MEAN_MOTION_DDOT":0},{"OBJECT_NAME":"ONEWEB-0050","OBJECT_ID":"2020-020AF","EPOCH":"2025-11-13T06:42:44.606880","MEAN_MOTION":14.89312509,"ECCENTRICITY":0.00052247,"INCLINATION":88.9209,"RA_OF_ASC_NODE":262.6657,"ARG_OF_PERICENTER":58.1934,"MEAN_ANOMALY":301.9802,"EPHEMERIS_TYPE":0,"CLASSIFICATION_TYPE":"U","NORAD_CAT_ID":45453,"ELEMENT_SET_NO":999,"REV_AT_EPOCH":30823,"BSTAR":0.0010141088,"MEAN_MOTION_DOT":9.636e-5,"MEAN_MOTION_DDOT":0},{"OBJECT_NAME":"ONEWEB-0034","OBJECT_ID":"2020-020AG","EPOCH":"2025-11-13T06:45:59.967648","MEAN_MOTION":13.11417869,"ECCENTRICITY":0.00016144,"INCLINATION":87.8866,"RA_OF_ASC_NODE":64.0477,"ARG_OF_PERICENTER":102.5873,"MEAN_ANOMALY":257.5436,"EPHEMERIS_TYPE":0,"CLASSIFICATION_TYPE":"U","NORAD_CAT_ID":45454,"ELEMENT_SET_NO":999,"REV_AT_EPOCH":27429,"BSTAR":0.0012837564,"MEAN_MOTION_DOT":4.68e-6,"MEAN_MOTION_DDOT":0},{"OBJECT_NAME":"ONEWEB-0060","OBJECT_ID":"2020-020AH","EPOCH":"2025-11-13T06:04:28.951968","MEAN_MOTION":13.11417872,"ECCENTRICITY":0.0002293,"INCLINATION":87.8853,"RA_OF_ASC_NODE":64.074,"ARG_OF_PERICENTER":128.4563,"MEAN_ANOMALY":231.6771,"EPHEMERIS_TYPE":0,"CLASSIFICATION_TYPE":"U","NORAD_CAT_ID":45455,"ELEMENT_SET_NO":999,"REV_AT_EPOCH":27424,"BSTAR":-0.0012793276,"MEAN_MOTION_DOT":-4.41e-6,"MEAN_MOTION_DDOT":0},{"OBJECT_NAME":"ONEWEB-0086","OBJECT_ID":"2020-020AJ","EPOCH":"2025-11-13T05:33:57.951936","MEAN_MOTION":13.11414136,"ECCENTRICITY":0.00023857,"INCLINATION":87.8866,"RA_OF_ASC_NODE":64.0544,"ARG_OF_PERICENTER":109.1922,"MEAN_ANOMALY":250.9465,"EPHEMERIS_TYPE":0,"CLASSIFICATION_TYPE":"U","NORAD_CAT_ID":45456,"ELEMENT_SET_NO":999,"REV_AT_EPOCH":27430,"BSTAR":0.00021546446,"MEAN_MOTION_DOT":8.9e-7,"MEAN_MOTION_DDOT":0},{"OBJECT_NAME":"ONEWEB-0088","OBJECT_ID":"2020-020AK","EPOCH":"2025-11-13T06:52:05.488032","MEAN_MOTION":13.11420117,"ECCENTRICITY":0.0001486,"INCLINATION":87.888,"RA_OF_ASC_NODE":63.9959,"ARG_OF_PERICENTER":104.6541,"MEAN_ANOMALY":255.4752,"EPHEMERIS_TYPE":0,"CLASSIFICATION_TYPE":"U","NORAD_CAT_ID":45457,"ELEMENT_SET_NO":999,"REV_AT_EPOCH":27424,"BSTAR":0.0015217429,"MEAN_MOTION_DOT":5.52e-6,"MEAN_MOTION_DDOT":0},{"OBJECT_NAME":"ONEWEB-0102","OBJECT_ID":"2020-100A","EPOCH":"2025-11-13T05:32:49.798752","MEAN_MOTION":13.12442249,"ECCENTRICITY":0.00018051,"INCLINATION":87.8972,"RA_OF_ASC_NODE":33.5886,"ARG_OF_PERICENTER":96.4691,"MEAN_ANOMALY":263.6643,"EPHEMERIS_TYPE":0,"CLASSIFICATION_TYPE":"U","NORAD_CAT_ID":47258,"ELEMENT_SET_NO":999,"REV_AT_EPOCH":23640,"BSTAR":-0.00036626707,"MEAN_MOTION_DOT":-1.19e-6,"MEAN_MOTION_DDOT":0},{"OBJECT_NAME":"ONEWEB-0109","OBJECT_ID":"2020-100B","EPOCH":"2025-11-13T05:44:29.851296","MEAN_MOTION":13.12443397,"ECCENTRICITY":0.00018047,"INCLINATION":87.8971,"RA_OF_ASC_NODE":33.5544,"ARG_OF_PERICENTER":98.5492,"MEAN_ANOMALY":261.5841,"EPHEMERIS_TYPE":0,"CLASSIFICATION_TYPE":"U","NORAD_CAT_ID":47259,"ELEMENT_SET_NO":999,"REV_AT_EPOCH":23623,"BSTAR":-0.00092593727,"MEAN_MOTION_DOT":-3.2e-6,"MEAN_MOTION_DDOT":0},{"OBJECT_NAME":"ONEWEB-0110","OBJECT_ID":"2020-100C","EPOCH":"2025-11-13T04:32:05.277408","MEAN_MOTION":13.12445314,"ECCENTRICITY":0.00019931,"INCLINATION":87.8971,"RA_OF_ASC_NODE":33.5481,"ARG_OF_PERICENTER":106.0294,"MEAN_ANOMALY":254.1054,"EPHEMERIS_TYPE":0,"CLASSIFICATION_TYPE":"U","NORAD_CAT_ID":47260,"ELEMENT_SET_NO":999,"REV_AT_EPOCH":23639,"BSTAR":0.00011355761,"MEAN_MOTION_DOT":5.4e-7,"MEAN_MOTION_DDOT":0},{"OBJECT_NAME":"ONEWEB-0111","OBJECT_ID":"2020-100D","EPOCH":"2025-11-13T05:16:28.571232","MEAN_MOTION":13.12440738,"ECCENTRICITY":0.00017718,"INCLINATION":87.8973,"RA_OF_ASC_NODE":33.5596,"ARG_OF_PERICENTER":100.7207,"MEAN_ANOMALY":259.4121,"EPHEMERIS_TYPE":0,"CLASSIFICATION_TYPE":"U","NORAD_CAT_ID":47261,"ELEMENT_SET_NO":999,"REV_AT_EPOCH":23623,"BSTAR":0.00029241387,"MEAN_MOTION_DOT":1.18e-6,"MEAN_MOTION_DDOT":0},{"OBJECT_NAME":"ONEWEB-0114","OBJECT_ID":"2020-100E","EPOCH":"2025-11-13T06:00:50.703840","MEAN_MOTION":13.12443,"ECCENTRICITY":0.00017739,"INCLINATION":87.8977,"RA_OF_ASC_NODE":33.5483,"ARG_OF_PERICENTER":91.6316,"MEAN_ANOMALY":268.5016,"EPHEMERIS_TYPE":0,"CLASSIFICATION_TYPE":"U","NORAD_CAT_ID":47262,"ELEMENT_SET_NO":999,"REV_AT_EPOCH":23619,"BSTAR":-0.0014111599,"MEAN_MOTION_DOT":-4.95e-6,"MEAN_MOTION_DDOT":0},{"OBJECT_NAME":"ONEWEB-0117","OBJECT_ID":"2020-100F","EPOCH":"2025-11-13T05:49:10.573536","MEAN_MOTION":13.12442379,"ECCENTRICITY":0.00017485,"INCLINATION":87.8972,"RA_OF_ASC_NODE":33.5477,"ARG_OF_PERICENTER":102.442,"MEAN_ANOMALY":257.6905,"EPHEMERIS_TYPE":0,"CLASSIFICATION_TYPE":"U","NORAD_CAT_ID":47263,"ELEMENT_SET_NO":999,"REV_AT_EPOCH":23620,"BSTAR":-0.0011081141,"MEAN_MOTION_DOT":-3.86e-6,"MEAN_MOTION_DDOT":0},{"OBJECT_NAME":"ONEWEB-0118","OBJECT_ID":"2020-100G","EPOCH":"2025-11-13T04:46:07.114080","MEAN_MOTION":13.12443994,"ECCENTRICITY":0.00014976,"INCLINATION":87.8969,"RA_OF_ASC_NODE":33.5553,"ARG_OF_PERICENTER":92.6095,"MEAN_ANOMALY":267.5205,"EPHEMERIS_TYPE":0,"CLASSIFICATION_TYPE":"U","NORAD_CAT_ID":47264,"ELEMENT_SET_NO":999,"REV_AT_EPOCH":23639,"BSTAR":0.0010617364,"MEAN_MOTION_DOT":3.95e-6,"MEAN_MOTION_DDOT":0},{"OBJECT_NAME":"ONEWEB-0119","OBJECT_ID":"2020-100H","EPOCH":"2025-11-13T05:25:49.031616","MEAN_MOTION":13.12442604,"ECCENTRICITY":0.00017937,"INCLINATION":87.897,"RA_OF_ASC_NODE":33.5859,"ARG_OF_PERICENTER":101.6834,"MEAN_ANOMALY":258.4496,"EPHEMERIS_TYPE":0,"CLASSIFICATION_TYPE":"U","NORAD_CAT_ID":47265,"ELEMENT_SET_NO":999,"REV_AT_EPOCH":23637,"BSTAR":2.4417255e-5,"MEAN_MOTION_DOT":2.1e-7,"MEAN_MOTION_DDOT":0},{"OBJECT_NAME":"ONEWEB-0120","OBJECT_ID":"2020-100J","EPOCH":"2025-11-13T05:58:42.646080","MEAN_MOTION":13.12444806,"ECCENTRICITY":0.00017512,"INCLINATION":87.8966,"RA_OF_ASC_NODE":33.5841,"ARG_OF_PERICENTER":97.5155,"MEAN_ANOMALY":262.6173,"EPHEMERIS_TYPE":0,"CLASSIFICATION_TYPE":"U","NORAD_CAT_ID":47266,"ELEMENT_SET_NO":999,"REV_AT_EPOCH":23640,"BSTAR":-0.00082739943,"MEAN_MOTION_DOT":-2.85e-6,"MEAN_MOTION_DDOT":0},{"OBJECT_NAME":"ONEWEB-0121","OBJECT_ID":"2020-100K","EPOCH":"2025-11-13T05:42:10.135584","MEAN_MOTION":13.12442414,"ECCENTRICITY":0.00018638,"INCLINATION":87.8972,"RA_OF_ASC_NODE":33.552,"ARG_OF_PERICENTER":105.0519,"MEAN_ANOMALY":255.0816,"EPHEMERIS_TYPE":0,"CLASSIFICATION_TYPE":"U","NORAD_CAT_ID":47267,"ELEMENT_SET_NO":999,"REV_AT_EPOCH":23631,"BSTAR":-0.00087143967,"MEAN_MOTION_DOT":-3.01e-6,"MEAN_MOTION_DDOT":0}]
